NORAD_CAT_ID,OBJECT_NAME,OBJECT_TYPE,EPOCH,MEAN_MOTION,ECCENTRICITY,INCLINATION,RA_OF_ASC_NODE,ARG_OF_PERICENTER,MEAN_ANOMALY,BSTAR,MEAN_MOTION_DOT,MEAN_MOTION_DDOT,TLE_LINE0,TLE_LINE1,TLE_LINE2,SEMIMAJOR_AXIS,PERIOD,APOGEE,PERIGEE,DECAYED
52111.0,STARLINK-3708,PAYLOAD,2024-03-01 15:13:57,15.08846211,0.0001241,53.2165,152.3747,80.44,279.6732,3.007e-05,1.91e-06,0.0,0 STARLINK-3708,1 52111U 22029Z   24061.63469256  .00000191  00000-0  30070-4 0  9994,2 52111  53.2165 152.3747 0001241  80.4400 279.6732 15.08846211109368,6917.861,95.437,540.585,538.868,0.0
52111.0,STARLINK-3708,PAYLOAD,2024-03-02 11:53:57,15.0885143,0.0001432,53.2178,148.5068,79.7533,280.3621,0.00013234,1.819e-05,0.0,0 STARLINK-3708,1 52111U 22029Z   24062.49580361  .00001819  00000-0  13234-3 0  9990,2 52111  53.2178 148.5068 0001432  79.7533 280.3621 15.08851430109494,6917.845,95.437,540.701,538.72,0.0
52111.0,STARLINK-3708,PAYLOAD,2024-03-03 11:44:44,15.08841081,0.0001483,53.2176,144.0491,99.5348,260.5812,5.8522e-05,6.44e-06,0.0,0 STARLINK-3708,1 52111U 22029Z   24063.48940937  .00000644  00000-0  58522-4 0  9994,2 52111  53.2176 144.0491 0001483  99.5348 260.5812 15.08841081109643,6917.877,95.437,540.768,538.716,0.0
52111.0,STARLINK-3708,PAYLOAD,2024-03-04 11:35:30,15.08860931,0.0001615,53.2178,139.589,104.5968,255.5204,0.00020245,2.937e-05,0.0,0 STARLINK-3708,1 52111U 22029Z   24064.48298824  .00002937  00000-0  20245-3 0  9993,2 52111  53.2178 139.5890 0001615 104.5968 255.5204 15.08860931109799,6917.816,95.436,540.799,538.564,0.0
52111.0,STARLINK-3708,PAYLOAD,2024-03-05 09:50:56,15.08824637,0.0001467,53.2171,135.4284,120.2009,239.9129,-4.7711e-05,-1.047e-05,0.0,0 STARLINK-3708,1 52111U 22029Z   24065.41038093 -.00001047  00000-0 -47711-4 0  9998,2 52111  53.2171 135.4284 0001467 120.2009 239.9129 15.08824637109931,6917.927,95.439,540.807,538.777,0.0
52111.0,STARLINK-3708,PAYLOAD,2024-03-05 19:23:16,15.08823397,0.0001322,53.2169,133.6411,105.1471,254.9668,-8.9685e-05,-1.714e-05,0.0,0 STARLINK-3708,1 52111U 22029Z   24065.80782712 -.00001714  00000-0 -89685-4 0  9992,2 52111  53.2169 133.6411 0001322 105.1471 254.9668 15.08823397109998,6917.931,95.439,540.711,538.882,0.0
52111.0,STARLINK-3708,PAYLOAD,2024-03-06 09:41:43,15.08842038,0.0001381,53.2158,130.9634,101.3214,258.7933,-1.0695e-05,-4.58e-06,0.0,0 STARLINK-3708,1 52111U 22029Z   24066.40397595 -.00000458  00000-0 -10695-4 0  9999,2 52111  53.2158 130.9634 0001381 101.3214 258.7933 15.08842038110083,6917.874,95.437,540.695,538.784,0.0
52111.0,STARLINK-3708,PAYLOAD,2024-03-07 03:10:58,15.08830914,0.0001663,53.2164,127.6977,114.4242,245.6923,0.00028466,4.244e-05,0.0,0 STARLINK-3708,1 52111U 22029Z   24067.13262514  .00004244  00000-0  28466-3 0  9991,2 52111  53.2164 127.6977 0001663 114.4242 245.6923 15.08830914110198,6917.908,95.438,540.924,538.623,0.0
52111.0,STARLINK-3708,PAYLOAD,2024-03-07 09:32:31,15.08832275,0.0001623,53.2164,126.5086,112.5915,247.5249,0.00028296,4.217e-05,0.0,0 STARLINK-3708,1 52111U 22029Z   24067.39758624  .00004217  00000-0  28296-3 0  9992,2 52111  53.2164 126.5086 0001623 112.5915 247.5249 15.08832275110238,6917.904,95.438,540.892,538.646,0.0
52111.0,STARLINK-3708,PAYLOAD,2024-03-08 10:58:40,15.08852759,0.0001592,53.2163,121.751,110.1207,249.9956,0.00018223,2.614e-05,0.0,0 STARLINK-3708,1 52111U 22029Z   24068.45741514  .00002614  00000-0  18223-3 0  9998,2 52111  53.2163 121.7510 0001592 110.1207 249.9956 15.08852759110396,6917.841,95.437,540.808,538.605,0.0
52111.0,STARLINK-3708,PAYLOAD,2024-03-08 12:34:03,15.08853114,0.0001596,53.2163,121.4536,110.2049,249.9115,0.00018322,2.63e-05,0.0,0 STARLINK-3708,1 52111U 22029Z   24068.52365449  .00002630  00000-0  18322-3 0  9993,2 52111  53.2163 121.4536 0001596 110.2049 249.9115 15.08853114110405,6917.84,95.437,540.809,538.601,0.0
52111.0,STARLINK-3708,PAYLOAD,2024-03-08 20:30:59,15.08843666,0.0001608,53.217,119.9594,94.9354,265.1821,-1.9314e-06,-3.19e-06,0.0,0 STARLINK-3708,1 52111U 22029Z   24068.85485787 -.00000319  00000-0 -19314-5 0  9995,2 52111  53.2170 119.9594 0001608  94.9354 265.1821 15.08843666110450,6917.869,95.437,540.847,538.622,0.0
52111.0,STARLINK-3708,PAYLOAD,2024-03-09 02:52:32,15.08842303,0.000154,53.2153,118.7738,97.5914,262.5253,0.00010664,1.41e-05,0.0,0 STARLINK-3708,1 52111U 22029Z   24069.11981858  .00001410  00000-0  10664-3 0  9993,2 52111  53.2153 118.7738 0001540  97.5914 262.5253 15.08842303110495,6917.873,95.437,540.804,538.673,0.0
52111.0,STARLINK-3708,PAYLOAD,2024-03-09 10:49:27,15.08862157,0.0001435,53.2155,117.2885,93.2896,266.8261,0.00035397,5.353e-05,0.0,0 STARLINK-3708,1 52111U 22029Z   24069.45100831  .00005353  00000-0  35397-3 0  9994,2 52111  53.2155 117.2885 0001435  93.2896 266.8261 15.08862157110540,6917.813,95.436,540.67,538.685,0.0
52111.0,STARLINK-3708,PAYLOAD,2024-03-09 20:21:46,15.08845129,0.0001636,53.2174,115.4994,78.8791,281.2386,5.6176e-06,-1.99e-06,0.0,0 STARLINK-3708,1 52111U 22029Z   24069.84845254 -.00000199  00000-0  56176-5 0  9996,2 52111  53.2174 115.4994 0001636  78.8791 281.2386 15.08845129110604,6917.865,95.437,540.861,538.598,0.0
52111.0,STARLINK-3708,PAYLOAD,2024-03-10 09:04:52,15.08832129,0.0001309,53.2159,113.122,86.4588,273.6554,-0.00018529,-3.235e-05,0.0,0 STARLINK-3708,1 52111U 22029Z   24070.37838101 -.00003235  00000-0 -18529-3 0  9992,2 52111  53.2159 113.1220 0001309  86.4588 273.6554 15.08832129110686,6917.904,95.438,540.675,538.864,0.0
52111.0,STARLINK-3708,PAYLOAD,2024-03-11 08:55:39,15.08845449,0.0001471,53.2147,108.6628,80.5554,279.5605,0.00041655,6.349e-05,0.0,0 STARLINK-3708,1 52111U 22029Z   24071.37198019  .00006349  00000-0  41655-3 0  9993,2 52111  53.2147 108.6628 0001471  80.5554 279.5605 15.08845449110830,6917.864,95.437,540.746,538.711,0.0
52111.0,STARLINK-3708,PAYLOAD,2024-03-12 11:57:12,15.08850058,0.0001662,53.2156,103.6075,83.5147,276.6034,0.00034418,5.195e-05,0.0,0 STARLINK-3708,1 52111U 22029Z   24072.49805933  .00005195  00000-0  34418-3 0  9994,2 52111  53.2156 103.6075 0001662  83.5147 276.6034 15.08850058111000,6917.85,95.437,540.864,538.565,0.0
52111.0,STARLINK-3708,PAYLOAD,2024-03-13 02:15:40,15.08842202,0.0001679,53.2151,100.9297,84.6841,275.4342,5.1745e-05,5.36e-06,0.0,0 STARLINK-3708,1 52111U 22029Z   24073.09422010  .00000536  00000-0  51745-4 0  9999,2 52111  53.2151 100.9297 0001679  84.6841 275.4342 15.08842202111092,6917.874,95.437,540.9,538.577,0.0
52111.0,STARLINK-3708,PAYLOAD,2024-03-13 08:37:12,15.08846174,0.0001625,53.215,99.7409,84.2264,275.8913,8.5447e-05,1.072e-05,0.0,0 STARLINK-3708,1 52111U 22029Z   24073.35917743  .00001072  00000-0  85447-4 0  9992,2 52111  53.2150  99.7409 0001625  84.2264 275.8913 15.08846174111132,6917.862,95.437,540.851,538.602,0.0
52111.0,STARLINK-3708,PAYLOAD,2024-03-13 18:09:31,15.08840479,0.0001532,53.2145,97.9568,80.9449,279.1716,6.3028e-06,-1.88e-06,0.0,0 STARLINK-3708,1 52111U 22029Z   24073.75662004 -.00000188  00000-0  63028-5 0  9993,2 52111  53.2145  97.9568 0001532  80.9449 279.1716 15.08840479111193,6917.879,95.438,540.804,538.684,0.0
52111.0,STARLINK-3708,PAYLOAD,2024-03-14 05:17:14,15.08836406,0.0001569,53.2167,95.8763,84.7073,275.4098,9.6514e-07,-2.73e-06,0.0,0 STARLINK-3708,1 52111U 22029Z   24074.22030694 -.00000273  00000-0  96514-6 0  9992,2 52111  53.2167  95.8763 0001569  84.7073 275.4098 15.08836406111261,6917.891,95.438,540.842,538.671,0.0
52111.0,STARLINK-3708,PAYLOAD,2024-03-14 06:52:37,15.0883804,0.0001565,53.2168,95.5809,87.1417,272.9754,1.2369e-05,-9.1e-07,0.0,0 STARLINK-3708,1 52111U 22029Z   24074.28654563 -.00000091  00000-0  12369-4 0  9997,2 52111  53.2168  95.5809 0001565  87.1417 272.9754 15.08838040111273,6917.886,95.438,540.834,538.669,0.0
52111.0,STARLINK-3708,PAYLOAD,2024-03-14 08:28:00,15.08838807,0.0001582,53.2171,95.2833,87.5417,272.5756,1.8757e-05,1.1e-07,0.0,0 STARLINK-3708,1 52111U 22029Z   24074.35278493  .00000011  00000-0  18757-4 0  9997,2 52111  53.2171  95.2833 0001582  87.5417 272.5756 15.08838807111284,6917.884,95.438,540.843,538.655,0.0
52111.0,STARLINK-3708,PAYLOAD,2024-03-15 09:54:11,15.0883806,0.0001612,53.217,90.5253,88.8263,271.2914,3.9108e-05,3.34e-06,0.0,0 STARLINK-3708,1 52111U 22029Z   24075.41262766  .00000334  00000-0  39108-4 0  9992,2 52111  53.2170  90.5253 0001612  88.8263 271.2914 15.08838060111445,6917.886,95.438,540.866,538.636,0.0
52111.0,STARLINK-3708,PAYLOAD,2024-03-16 09:44:57,15.08843869,0.0001608,53.2172,86.0641,90.2595,269.8582,0.00012805,1.751e-05,0.0,0 STARLINK-3708,1 52111U 22029Z   24076.40622421  .00001751  00000-0  12805-3 0  9998,2 52111  53.2172  86.0641 0001608  90.2595 269.8582 15.08843869111591,6917.869,95.437,540.846,538.621,0.0
52111.0,STARLINK-3708,PAYLOAD,2024-03-17 04:49:36,15.08835791,0.000166,53.2175,82.4956,92.8984,267.2198,3.6867e-05,2.99e-06,0.0,0 STARLINK-3708,1 52111U 22029Z   24077.20111384  .00000299  00000-0  36867-4 0  9999,2 52111  53.2175  82.4956 0001660  92.8984 267.2198 15.08835791111715,6917.893,95.438,540.907,538.61,0.0
52111.0,STARLINK-3708,PAYLOAD,2024-03-17 08:00:22,15.08839174,0.0001549,53.2169,81.8998,94.0317,266.0852,5.758e-05,6.28e-06,0.0,0 STARLINK-3708,1 52111U 22029Z   24077.33359104  .00000628  00000-0  57580-4 0  9998,2 52111  53.2169  81.8998 0001549  94.0317 266.0852 15.08839174111732,6917.883,95.438,540.819,538.676,0.0
52111.0,STARLINK-3708,PAYLOAD,2024-03-18 04:40:22,15.08849808,0.0001589,53.2168,78.0331,117.0676,243.0478,4.7923e-05,4.75e-06,0.0,0 STARLINK-3708,1 52111U 22029Z   24078.19470224  .00000475  00000-0  47923-4 0  9990,2 52111  53.2168  78.0331 0001589 117.0676 243.0478 15.08849808111866,6917.85,95.437,540.815,538.616,0.0
52111.0,STARLINK-3708,PAYLOAD,2024-03-18 06:15:45,15.08849215,0.0001675,53.2176,77.7379,79.1739,280.9441,8.3998e-05,1.049e-05,0.0,0 STARLINK-3708,1 52111U 22029Z   24078.26094416  .00001049  00000-0  83998-4 0  9993,2 52111  53.2176  77.7379 0001675  79.1739 280.9441 15.08849215111870,6917.852,95.437,540.876,538.558,0.0
